{
  "type": "FeatureCollection",
  "features": [
    {
      "type": "Feature",
      "properties": {
        "norad_id": 34570,
        "name": "COSMOS 2251 DEB",
        "group": "cosmos-2251-debris",
        "lat": 49.71386234181832,
        "lon": -104.76122167047492,
        "alt_km": 834.3974027605764,
        "timestamp": "2025-12-02T21:34:01.665321+00:00",
        "meta_object_name": "COSMOS 2251 DEB",
        "meta_object_id": "1993-036VG",
        "meta_epoch": "2025-12-01T04:52:12.097056",
        "meta_mean_motion": 13.99791144,
        "meta_eccentricity": 0.0190354,
        "meta_inclination": 73.9581,
        "meta_ra_of_asc_node": 238.3445,
        "meta_arg_of_pericenter": 123.4106,
        "meta_mean_anomaly": 29.376,
        "meta_ephemeris_type": 0,
        "meta_classification_type": "U",
        "meta_norad_cat_id": 34570,
        "meta_element_set_no": 999,
        "meta_rev_at_epoch": 85439,
        "meta_bstar": 0.00050145,
        "meta_mean_motion_dot": 8.36e-06,
        "meta_mean_motion_ddot": 0,
        "tle_line1": "1 34570U 93036VG  25335.20291779  .00000836  00000+0  50145-3 0  9999",
        "tle_line2": "2 34570  73.9581 238.3445 0190354 123.4106  29.3760 13.99791144854396"
      },
      "geometry": {
        "type": "Point",
        "coordinates": [
          -104.76122167047492,
          49.71386234181832
        ]
      }
    },
    {
      "type": "Feature",
      "properties": {
        "norad_id": 34571,
        "name": "COSMOS 2251 DEB",
        "group": "cosmos-2251-debris",
        "lat": -23.491672812046147,
        "lon": -166.2767736309174,
        "alt_km": 741.3317750379301,
        "timestamp": "2025-12-02T21:34:01.665332+00:00",
        "meta_object_name": "COSMOS 2251 DEB",
        "meta_object_id": "1993-036VH",
        "meta_epoch": "2025-12-02T01:47:25.662048",
        "meta_mean_motion": 14.48552356,
        "meta_eccentricity": 0.00671924,
        "meta_inclination": 74.0386,
        "meta_ra_of_asc_node": 202.4121,
        "meta_arg_of_pericenter": 239.9116,
        "meta_mean_anomaly": 119.5371,
        "meta_ephemeris_type": 0,
        "meta_classification_type": "U",
        "meta_norad_cat_id": 34571,
        "meta_element_set_no": 999,
        "meta_rev_at_epoch": 87139,
        "meta_bstar": 0.0021114051,
        "meta_mean_motion_dot": 8.143e-05,
        "meta_mean_motion_ddot": 0,
        "tle_line1": "1 34571U 93036VH  25336.07460257  .00008143  00000+0  21114-2 0  9997",
        "tle_line2": "2 34571  74.0386 202.4121 0067192 239.9116 119.5371 14.48552356871396"
      },
      "geometry": {
        "type": "Point",
        "coordinates": [
          -166.2767736309174,
          -23.491672812046147
        ]
      }
    },
    {
      "type": "Feature",
      "properties": {
        "norad_id": 34572,
        "name": "COSMOS 2251 DEB",
        "group": "cosmos-2251-debris",
        "lat": 22.976071793575887,
        "lon": -52.97053649191578,
        "alt_km": 698.5920011085809,
        "timestamp": "2025-12-02T21:34:01.665341+00:00",
        "meta_object_name": "COSMOS 2251 DEB",
        "meta_object_id": "1993-036VJ",
        "meta_epoch": "2025-12-01T11:59:02.664096",
        "meta_mean_motion": 14.49619405,
        "meta_eccentricity": 0.00641877,
        "meta_inclination": 74.0092,
        "meta_ra_of_asc_node": 136.6423,
        "meta_arg_of_pericenter": 212.2456,
        "meta_mean_anomaly": 204.7562,
        "meta_ephemeris_type": 0,
        "meta_classification_type": "U",
        "meta_norad_cat_id": 34572,
        "meta_element_set_no": 999,
        "meta_rev_at_epoch": 87215,
        "meta_bstar": 0.003471836,
        "meta_mean_motion_dot": 0.00013693,
        "meta_mean_motion_ddot": 0,
        "tle_line1": "1 34572U 93036VJ  25335.49933639  .00013693  00000+0  34718-2 0  9992",
        "tle_line2": "2 34572  74.0092 136.6423 0064187 212.2456 204.7562 14.49619405872150"
      },
      "geometry": {
        "type": "Point",
        "coordinates": [
          -52.97053649191578,
          22.976071793575887
        ]
      }
    },
    {
      "type": "Feature",
      "properties": {
        "norad_id": 34574,
        "name": "COSMOS 2251 DEB",
        "group": "cosmos-2251-debris",
        "lat": 30.0676397214383,
        "lon": 71.71031377909429,
        "alt_km": 630.646535142062,
        "timestamp": "2025-12-02T21:34:01.665352+00:00",
        "meta_object_name": "COSMOS 2251 DEB",
        "meta_object_id": "1993-036VL",
        "meta_epoch": "2025-12-02T07:03:07.364736",
        "meta_mean_motion": 14.70405617,
        "meta_eccentricity": 0.0067025,
        "meta_inclination": 74.0695,
        "meta_ra_of_asc_node": 63.363,
        "meta_arg_of_pericenter": 87.9057,
        "meta_mean_anomaly": 344.0832,
        "meta_ephemeris_type": 0,
        "meta_classification_type": "U",
        "meta_norad_cat_id": 34574,
        "meta_element_set_no": 999,
        "meta_rev_at_epoch": 88625,
        "meta_bstar": 0.0012469,
        "meta_mean_motion_dot": 7.791e-05,
        "meta_mean_motion_ddot": 0,
        "tle_line1": "1 34574U 93036VL  25336.29383524  .00007791  00000+0  12469-2 0  9996",
        "tle_line2": "2 34574  74.0695  63.3630 0067025  87.9057 344.0832 14.70405617886251"
      },
      "geometry": {
        "type": "Point",
        "coordinates": [
          71.71031377909429,
          30.0676397214383
        ]
      }
    },
    {
      "type": "Feature",
      "properties": {
        "norad_id": 34576,
        "name": "COSMOS 2251 DEB",
        "group": "cosmos-2251-debris",
        "lat": 1.93816713055363,
        "lon": -23.716820113702738,
        "alt_km": 712.8378313148869,
        "timestamp": "2025-12-02T21:34:01.665362+00:00",
        "meta_object_name": "COSMOS 2251 DEB",
        "meta_object_id": "1993-036VN",
        "meta_epoch": "2025-12-02T12:38:34.732032",
        "meta_mean_motion": 14.55303587,
        "meta_eccentricity": 0.0007841,
        "meta_inclination": 74.0326,
        "meta_ra_of_asc_node": 157.5424,
        "meta_arg_of_pericenter": 290.8136,
        "meta_mean_anomaly": 99.8312,
        "meta_ephemeris_type": 0,
        "meta_classification_type": "U",
        "meta_norad_cat_id": 34576,
        "meta_element_set_no": 999,
        "meta_rev_at_epoch": 88318,
        "meta_bstar": 0.0010033,
        "meta_mean_motion_dot": 4.325e-05,
        "meta_mean_motion_ddot": 0,
        "tle_line1": "1 34576U 93036VN  25336.52679088  .00004325  00000+0  10033-2 0  9992",
        "tle_line2": "2 34576  74.0326 157.5424 0007841 290.8136  99.8312 14.55303587883187"
      },
      "geometry": {
        "type": "Point",
        "coordinates": [
          -23.716820113702738,
          1.93816713055363
        ]
      }
    },
    {
      "type": "Feature",
      "properties": {
        "norad_id": 34577,
        "name": "COSMOS 2251 DEB",
        "group": "cosmos-2251-debris",
        "lat": -71.42656760287795,
        "lon": 126.11903968732459,
        "alt_km": 305.8373000821548,
        "timestamp": "2025-12-02T21:34:01.665372+00:00",
        "meta_object_name": "COSMOS 2251 DEB",
        "meta_object_id": "1993-036VP",
        "meta_epoch": "2025-12-02T00:46:12.345312",
        "meta_mean_motion": 15.88684071,
        "meta_eccentricity": 0.00073441,
        "meta_inclination": 73.9875,
        "meta_ra_of_asc_node": 186.8683,
        "meta_arg_of_pericenter": 144.5153,
        "meta_mean_anomaly": 215.657,
        "meta_ephemeris_type": 0,
        "meta_classification_type": "U",
        "meta_norad_cat_id": 34577,
        "meta_element_set_no": 999,
        "meta_rev_at_epoch": 89358,
        "meta_bstar": 0.0069258089,
        "meta_mean_motion_dot": 0.01894776,
        "meta_mean_motion_ddot": 0.0018705247,
        "tle_line1": "1 34577U 93036VP  25336.03208733  .01894776  18705-2  69258-2 0  9999",
        "tle_line2": "2 34577  73.9875 186.8683 0007344 144.5153 215.6570 15.88684071893585"
      },
      "geometry": {
        "type": "Point",
        "coordinates": [
          126.11903968732459,
          -71.42656760287795
        ]
      }
    },
    {
      "type": "Feature",
      "properties": {
        "norad_id": 34579,
        "name": "COSMOS 2251 DEB",
        "group": "cosmos-2251-debris",
        "lat": 31.723623918927093,
        "lon": -107.60658435978394,
        "alt_km": 735.8986087432177,
        "timestamp": "2025-12-02T21:34:01.665382+00:00",
        "meta_object_name": "COSMOS 2251 DEB",
        "meta_object_id": "1993-036VR",
        "meta_epoch": "2025-12-02T03:52:32.689344",
        "meta_mean_motion": 14.45253632,
        "meta_eccentricity": 0.00275098,
        "meta_inclination": 74.0539,
        "meta_ra_of_asc_node": 243.5847,
        "meta_arg_of_pericenter": 313.8164,
        "meta_mean_anomaly": 205.3919,
        "meta_ephemeris_type": 0,
        "meta_classification_type": "U",
        "meta_norad_cat_id": 34579,
        "meta_element_set_no": 999,
        "meta_rev_at_epoch": 88021,
        "meta_bstar": 0.00054304311,
        "meta_mean_motion_dot": 1.887e-05,
        "meta_mean_motion_ddot": 0,
        "tle_line1": "1 34579U 93036VR  25336.16148946  .00001887  00000+0  54304-3 0  9999",
        "tle_line2": "2 34579  74.0539 243.5847 0027509 313.8164 205.3919 14.45253632880213"
      },
      "geometry": {
        "type": "Point",
        "coordinates": [
          -107.60658435978394,
          31.723623918927093
        ]
      }
    }
  ]
}